{"type": "FeatureCollection", "features": [{"type": "Feature", "properties": {"norad_id": 28054, "name": "DMSP 5D-3 F16 (USA 172)", "group": "weather", "lat": 28.129841286681856, "lon": -179.8028614276279, "alt_km": 847.7544467555099, "timestamp": "2025-12-03T22:42:32.302055+00:00", "meta": {"OBJECT_NAME": "DMSP 5D-3 F16 (USA 172)", "OBJECT_ID": "2003-048A", "EPOCH": "2025-12-03T12:32:12.711840", "MEAN_MOTION": 14.14418884, "ECCENTRICITY": 0.0006884, "INCLINATION": 99.0053, "RA_OF_ASC_NODE": 354.9066, "ARG_OF_PERICENTER": 348.9235, "MEAN_ANOMALY": 165.4985, "EPHEMERIS_TYPE": 0, "CLASSIFICATION_TYPE": "U", "NORAD_CAT_ID": 28054, "ELEMENT_SET_NO": 999, "REV_AT_EPOCH": 14182, "BSTAR": 0.00013873, "MEAN_MOTION_DOT": 2.2e-06, "MEAN_MOTION_DDOT": 0}, "tle": {"line1": "1 28054U 03048A   25337.52236935  .00000220  00000+0  13873-3 0  9997", "line2": "2 28054  99.0053 354.9066 0006884 348.9235 165.4985 14.14418884141827"}}, "geometry": {"type": "Point", "coordinates": [-179.8028614276279, 28.129841286681856]}}, {"type": "Feature", "properties": {"norad_id": 28912, "name": "METEOSAT-9 (MSG-2)", "group": "weather", "lat": 6.1081353205488575, "lon": 98.87110043472336, "alt_km": 35798.701967039124, "timestamp": "2025-12-03T22:42:32.302120+00:00", "meta": {"OBJECT_NAME": "METEOSAT-9 (MSG-2)", "OBJECT_ID": "2005-049B", "EPOCH": "2025-12-02T20:50:55.807872", "MEAN_MOTION": 1.00271253, "ECCENTRICITY": 0.00040042, "INCLINATION": 8.9157, "RA_OF_ASC_NODE": 56.0648, "ARG_OF_PERICENTER": 185.08, "MEAN_ANOMALY": 189.154, "EPHEMERIS_TYPE": 0, "CLASSIFICATION_TYPE": "U", "NORAD_CAT_ID": 28912, "ELEMENT_SET_NO": 999, "REV_AT_EPOCH": 503, "BSTAR": 0, "MEAN_MOTION_DOT": 1.39e-06, "MEAN_MOTION_DDOT": 0}, "tle": {"line1": "1 28912U 05049B   25336.86870148  .00000139  00000+0  00000+0 0  9992", "line2": "2 28912   8.9157  56.0648 0004004 185.0800 189.1540  1.00271253  5030"}}, "geometry": {"type": "Point", "coordinates": [98.87110043472336, 6.1081353205488575]}}, {"type": "Feature", "properties": {"norad_id": 29522, "name": "DMSP 5D-3 F17 (USA 191)", "group": "weather", "lat": 73.76454213441009, "lon": -48.36838074333099, "alt_km": 842.1238059588723, "timestamp": "2025-12-03T22:42:32.302137+00:00", "meta": {"OBJECT_NAME": "DMSP 5D-3 F17 (USA 191)", "OBJECT_ID": "2006-050A", "EPOCH": "2025-12-03T12:09:58.828032", "MEAN_MOTION": 14.14913077, "ECCENTRICITY": 0.0009159, "INCLINATION": 98.7394, "RA_OF_ASC_NODE": 343.0882, "ARG_OF_PERICENTER": 253.7379, "MEAN_ANOMALY": 106.2787, "EPHEMERIS_TYPE": 0, "CLASSIFICATION_TYPE": "U", "NORAD_CAT_ID": 29522, "ELEMENT_SET_NO": 999, "REV_AT_EPOCH": 98474, "BSTAR": 0.00016179, "MEAN_MOTION_DOT": 2.69e-06, "MEAN_MOTION_DDOT": 0}, "tle": {"line1": "1 29522U 06050A   25337.50693088  .00000269  00000+0  16179-3 0  9993", "line2": "2 29522  98.7394 343.0882 0009159 253.7379 106.2787 14.14913077984740"}}, "geometry": {"type": "Point", "coordinates": [-48.36838074333099, 73.76454213441009]}}, {"type": "Feature", "properties": {"norad_id": 32958, "name": "FENGYUN 3A", "group": "weather", "lat": 4.94302285934425, "lon": -83.0974598489703, "alt_km": 823.9186263621204, "timestamp": "2025-12-03T22:42:32.302150+00:00", "meta": {"OBJECT_NAME": "FENGYUN 3A", "OBJECT_ID": "2008-026A", "EPOCH": "2025-12-03T10:50:37.603968", "MEAN_MOTION": 14.19509646, "ECCENTRICITY": 0.0008349, "INCLINATION": 98.6682, "RA_OF_ASC_NODE": 277.1747, "ARG_OF_PERICENTER": 339.0823, "MEAN_ANOMALY": 21.001, "EPHEMERIS_TYPE": 0, "CLASSIFICATION_TYPE": "U", "NORAD_CAT_ID": 32958, "ELEMENT_SET_NO": 999, "REV_AT_EPOCH": 90763, "BSTAR": 0.00010748, "MEAN_MOTION_DOT": 1.83e-06, "MEAN_MOTION_DDOT": 0}, "tle": {"line1": "1 32958U 08026A   25337.45182412  .00000183  00000+0  10748-3 0  9994", "line2": "2 32958  98.6682 277.1747 0008349 339.0823  21.0010 14.19509646907639"}}, "geometry": {"type": "Point", "coordinates": [-83.0974598489703, 4.94302285934425]}}, {"type": "Feature", "properties": {"norad_id": 35491, "name": "GOES 14", "group": "weather", "lat": -0.7600872257625108, "lon": -54.65488454467251, "alt_km": 35779.650723809835, "timestamp": "2025-12-03T22:42:32.302163+00:00", "meta": {"OBJECT_NAME": "GOES 14", "OBJECT_ID": "2009-033A", "EPOCH": "2025-12-03T09:48:58.361184", "MEAN_MOTION": 1.00272644, "ECCENTRICITY": 0.000418, "INCLINATION": 1.173, "RA_OF_ASC_NODE": 85.5185, "ARG_OF_PERICENTER": 150.4444, "MEAN_ANOMALY": 235.4417, "EPHEMERIS_TYPE": 0, "CLASSIFICATION_TYPE": "U", "NORAD_CAT_ID": 35491, "ELEMENT_SET_NO": 999, "REV_AT_EPOCH": 463, "BSTAR": 0, "MEAN_MOTION_DOT": -5e-07, "MEAN_MOTION_DDOT": 0}, "tle": {"line1": "1 35491U 09033A   25337.40900881 -.00000050  00000+0  00000+0 0  9991", "line2": "2 35491   1.1730  85.5185 0004180 150.4444 235.4417  1.00272644  4638"}}, "geometry": {"type": "Point", "coordinates": [-54.65488454467251, -0.7600872257625108]}}, {"type": "Feature", "properties": {"norad_id": 35951, "name": "DMSP 5D-3 F18 (USA 210)", "group": "weather", "lat": -50.92603339665515, "lon": -34.50383923297128, "alt_km": 856.4190570763158, "timestamp": "2025-12-03T22:42:32.302175+00:00", "meta": {"OBJECT_NAME": "DMSP 5D-3 F18 (USA 210)", "OBJECT_ID": "2009-057A", "EPOCH": "2025-12-03T11:04:19.663680", "MEAN_MOTION": 14.14760563, "ECCENTRICITY": 0.0012115, "INCLINATION": 98.8824, "RA_OF_ASC_NODE": 313.909, "ARG_OF_PERICENTER": 86.8754, "MEAN_ANOMALY": 273.3805, "EPHEMERIS_TYPE": 0, "CLASSIFICATION_TYPE": "U", "NORAD_CAT_ID": 35951, "ELEMENT_SET_NO": 999, "REV_AT_EPOCH": 83191, "BSTAR": 0.00021942, "MEAN_MOTION_DOT": 3.79e-06, "MEAN_MOTION_DDOT": 0}, "tle": {"line1": "1 35951U 09057A   25337.46133870  .00000379  00000+0  21942-3 0  9995", "line2": "2 35951  98.8824 313.9090 0012115  86.8754 273.3805 14.14760563831914"}}, "geometry": {"type": "Point", "coordinates": [-34.50383923297128, -50.92603339665515]}}, {"type": "Feature", "properties": {"norad_id": 36411, "name": "EWS-G2 (GOES 15)", "group": "weather", "lat": 0.3955419371524024, "lon": 115.08769673775805, "alt_km": 35806.74344706972, "timestamp": "2025-12-03T22:42:32.302187+00:00", "meta": {"OBJECT_NAME": "EWS-G2 (GOES 15)", "OBJECT_ID": "2010-008A", "EPOCH": "2025-12-03T10:37:23.721888", "MEAN_MOTION": 1.00267725, "ECCENTRICITY": 0.0005965, "INCLINATION": 0.789, "RA_OF_ASC_NODE": 86.0549, "ARG_OF_PERICENTER": 169.9659, "MEAN_ANOMALY": 37.3602, "EPHEMERIS_TYPE": 0, "CLASSIFICATION_TYPE": "U", "NORAD_CAT_ID": 36411, "ELEMENT_SET_NO": 999, "REV_AT_EPOCH": 5767, "BSTAR": 0, "MEAN_MOTION_DOT": 5.6e-07, "MEAN_MOTION_DDOT": 0}, "tle": {"line1": "1 36411U 10008A   25337.44263567  .00000056  00000+0  00000+0 0  9990", "line2": "2 36411   0.7890  86.0549 0005965 169.9659  37.3602  1.00267725 57679"}}, "geometry": {"type": "Point", "coordinates": [115.08769673775805, 0.3955419371524024]}}, {"type": "Feature", "properties": {"norad_id": 36744, "name": "COMS 1", "group": "weather", "lat": 4.181200700173184, "lon": -178.16204353861232, "alt_km": 35785.33792519944, "timestamp": "2025-12-03T22:42:32.302209+00:00", "meta": {"OBJECT_NAME": "COMS 1", "OBJECT_ID": "2010-032A", "EPOCH": "2025-12-03T10:38:21.640992", "MEAN_MOTION": 1.0026981, "ECCENTRICITY": 0.0001103, "INCLINATION": 4.3175, "RA_OF_ASC_NODE": 78.0982, "ARG_OF_PERICENTER": 183.5844, "MEAN_ANOMALY": 98.6094, "EPHEMERIS_TYPE": 0, "CLASSIFICATION_TYPE": "U", "NORAD_CAT_ID": 36744, "ELEMENT_SET_NO": 999, "REV_AT_EPOCH": 4912, "BSTAR": 0, "MEAN_MOTION_DOT": -3.28e-06, "MEAN_MOTION_DDOT": 0}, "tle": {"line1": "1 36744U 10032A   25337.44330603 -.00000328  00000+0  00000+0 0  9995", "line2": "2 36744   4.3175  78.0982 0001103 183.5844  98.6094  1.00269810 49127"}}, "geometry": {"type": "Point", "coordinates": [-178.16204353861232, 4.181200700173184]}}, {"type": "Feature", "properties": {"norad_id": 37214, "name": "FENGYUN 3B", "group": "weather", "lat": -80.80668496443388, "lon": 95.92172148245827, "alt_km": 856.0425344747473, "timestamp": "2025-12-03T22:42:32.302221+00:00", "meta": {"OBJECT_NAME": "FENGYUN 3B", "OBJECT_ID": "2010-059A", "EPOCH": "2025-12-03T11:44:50.576064", "MEAN_MOTION": 14.14785545, "ECCENTRICITY": 0.0022444, "INCLINATION": 98.9921, "RA_OF_ASC_NODE": 17.4017, "ARG_OF_PERICENTER": 23.8286, "MEAN_ANOMALY": 83.3589, "EPHEMERIS_TYPE": 0, "CLASSIFICATION_TYPE": "U", "NORAD_CAT_ID": 37214, "ELEMENT_SET_NO": 999, "REV_AT_EPOCH": 77975, "BSTAR": 0.00010265, "MEAN_MOTION_DOT": 1.53e-06, "MEAN_MOTION_DDOT": 0}, "tle": {"line1": "1 37214U 10059A   25337.48947426  .00000153  00000+0  10265-3 0  9991", "line2": "2 37214  98.9921  17.4017 0022444  23.8286  83.3589 14.14785545779757"}}, "geometry": {"type": "Point", "coordinates": [95.92172148245827, -80.80668496443388]}}, {"type": "Feature", "properties": {"norad_id": 37849, "name": "SUOMI NPP", "group": "weather", "lat": -35.877564582173314, "lon": -78.21753192720912, "alt_km": 834.6136332860333, "timestamp": "2025-12-03T22:42:32.302231+00:00", "meta": {"OBJECT_NAME": "SUOMI NPP", "OBJECT_ID": "2011-061A", "EPOCH": "2025-12-03T11:02:17.850912", "MEAN_MOTION": 14.19509901, "ECCENTRICITY": 0.0001899, "INCLINATION": 98.7759, "RA_OF_ASC_NODE": 274.8857, "ARG_OF_PERICENTER": 136.8156, "MEAN_ANOMALY": 223.3169, "EPHEMERIS_TYPE": 0, "CLASSIFICATION_TYPE": "U", "NORAD_CAT_ID": 37849, "ELEMENT_SET_NO": 999, "REV_AT_EPOCH": 73067, "BSTAR": 9.5433e-05, "MEAN_MOTION_DOT": 1.57e-06, "MEAN_MOTION_DDOT": 0}, "tle": {"line1": "1 37849U 11061A   25337.45992883  .00000157  00000+0  95433-4 0  9998", "line2": "2 37849  98.7759 274.8857 0001899 136.8156 223.3169 14.19509901730674"}}, "geometry": {"type": "Point", "coordinates": [-78.21753192720912, -35.877564582173314]}}]}